E-ST@R-II               
1 41459U 16025D   22146.86666180  .00011566  00000+0  50506-3 0  9990
2 41459  98.1835 310.4299 0145804 343.0430  16.5852 15.13140393334238
AAUSAT 4                
1 41460U 16025E   22146.73583688  .00018446  00000+0  71930-3 0  9997
2 41460  98.1809 316.2991 0126760 320.2439  38.9266 15.18771775334641
BEESAT-4                
1 41619U 16040W   22146.87161722  .00016155  00000+0  54737-3 0  9997
2 41619  97.2187 198.0839 0009941 183.3721 176.7455 15.30594210317425
RAVAN                   
1 41849U 16067B   22146.37456505  .00004276  00000+0  34234-3 0  9993
2 41849  97.9969 282.7186 0017992  53.5582 306.7296 15.00606701302685
CELTEE 1                
1 41850U 16067C   22146.61027529  .00002061  00000+0  17797-3 0  9997
2 41850  97.9937 278.0995 0009299  51.8728 308.3331 14.98380660302487
OPTICUBE 04             
1 41851U 16067D   22146.64798924  .00002579  00000+0  22500-3 0  9997
2 41851  97.9932 277.2174 0010228  60.5780 299.6461 14.97735043302442
AEROCUBE 8D             
1 41852U 16067E   22146.59834896  .00002332  00000+0  20120-3 0  9994
2 41852  97.9923 277.1549 0010654  56.7735 303.4506 14.98274502302429
AEROCUBE 8C             
1 41853U 16067F   22146.77942771  .00003849  00000+0  32879-3 0  9995
2 41853  97.9915 277.1646 0011208  61.3384 298.8963 14.98242290302442
PROMETHEUS 2-1          
1 41854U 16067G   22146.63104383  .00004930  00000+0  40815-3 0  9991
2 41854  97.9896 278.0366 0009681  62.2259 297.9943 14.99322956302473
PROMETHEUS 2-3          
1 41855U 16067H   22146.35697806  .00005092  00000+0  42126-3 0  9995
2 41855  97.9900 277.8341 0009048  57.6295 302.5801 14.99344384302436
INS-1B                  
1 41954U 17008G   22146.61362093  .00015252  00000+0  51077-3 0  9991
2 41954  97.2594 206.9564 0006223 319.7402  40.3378 15.31015494293408
BGUSAT                  
1 41999U 17008BD  22146.44697964  .00032222  00000+0  81535-3 0  9997
2 41999  97.2824 216.9456 0003691 303.0599  57.0293 15.39691715293251
DIDO-2                  
1 42000U 17008BE  22146.88438326  .00007712  00000+0  28210-3 0  9991
2 42000  97.2581 206.7238 0006714 347.5547  12.5526 15.28312637292777
PEASSS                  
1 42015U 17008BV  22146.90091253  .00012776  00000+0  42594-3 0  9991
2 42015  97.2649 210.4310 0004371 345.7154  14.3963 15.31209560293479
AL-FARABI 1             
1 42016U 17008BW  22146.63453090  .00017360  00000+0  53097-3 0  9997
2 42016  97.2713 213.0634 0003653 339.1690  20.9403 15.33905918293704
NAYIF-1 (EO-88)         
1 42017U 17008BX  22146.91231007  .00018557  00000+0  56499-3 0  9999
2 42017  97.2704 213.3470 0003723 334.9615  25.1447 15.34037901293775
UCLSAT                  
1 42765U 17036A   22146.86572958  .00014429  00000+0  50851-3 0  9997
2 42765  97.1993 190.2103 0010486  51.2956 308.9221 15.29329958274558
LITUANICASAT-2          
1 42768U 17036D   22146.63024706  .00027798  00000+0  82723-3 0  9994
2 42768  97.2079 192.4697 0010719  35.8314 324.3646 15.34628875273901
AALTO-1                 
1 42775U 17036L   22146.91831333  .00008808  00000+0  35077-3 0  9996
2 42775  97.1994 185.4704 0013723  49.6673 310.5762 15.25373807273496
URSA MAIOR              
1 42776U 17036M   22146.90685293  .00009250  00000+0  36253-3 0  9997
2 42776  97.2009 186.1663 0013386  48.8649 311.3743 15.25898360273524
COMPASS 2               
1 42777U 17036N   22146.87632606  .00020879  00000+0  67832-3 0  9991
2 42777  97.2066 192.1799 0010056  39.6449 320.5526 15.31895157273846
DIAMOND RED             
1 42783U 17036U   22146.56886264  .00010226  00000+0  38590-3 0  9999
2 42783  97.2006 188.1215 0011878  55.6853 304.5509 15.27148376273601
PEGASUS                 
1 42784U 17036V   22146.70989008  .00011965  00000+0  43330-3 0  9995
2 42784  97.2010 189.3504 0011321  53.2396 306.9881 15.28473494273691
DIAMOND GREEN           
1 42785U 17036W   22146.89506556  .00010355  00000+0  39037-3 0  9990
2 42785  97.2015 188.5006 0011753  55.8798 304.3555 15.27178910273726
DIAMOND BLUE            
1 42786U 17036X   22146.89373945  .00010076  00000+0  38015-3 0  9990
2 42786  97.2017 188.4922 0011713  56.1700 304.0653 15.27162891273725
NUDTSAT                 
1 42787U 17036Y   22146.95846509  .00028525  00000+0  89438-3 0  9992
2 42787  97.2038 193.5278 0009149  40.6576 319.5347 15.32980235273805
SUCHAI                  
1 42788U 17036Z   22146.59956254  .00015909  00000+0  54652-3 0  9994
2 42788  97.2016 190.8156 0010458  50.1315 310.0844 15.30143653273844
SKCUBE                  
1 42789U 17036AA  22146.84761851  .00014291  00000+0  50171-3 0  9995
2 42789  97.2013 190.5483 0010504  50.0965 310.1198 15.29457825273776
VZLUSAT-1               
1 42790U 17036AB  22146.63778054  .00020380  00000+0  64343-3 0  9999
2 42790  97.2039 193.1873 0008915  45.7750 314.4224 15.32829104273903
ROBUSTA-1B              
1 42792U 17036AD  22146.87562766  .00015268  00000+0  52805-3 0  9997
2 42792  97.2014 191.1217 0010045  50.4076 309.8051 15.29937106273824
CICERO 6                
1 42793U 17036AE  22145.67049053  .00012178  00000+0  46026-3 0  9999
2 42793  97.1991 187.8149 0010370  58.7085 301.5168 15.27070208273597
CORVUS BC2              
1 42846U 17042X   22146.83323031  .00001993  00000+0  19731-3 0  9991
2 42846  97.4263   5.3645 0011116  72.5571 287.6863 14.92847915265055
CORVUS BC1              
1 42847U 17042Y   22146.37915401  .00001282  00000+0  12845-3 0  9999
2 42847  97.4261   5.2379 0010746  72.9300 287.3096 14.92951980264994
MIRATA                  
1 43015U 17073C   22146.64069053  .00005707  00000+0  42065-3 0  9997
2 43015  97.6770  42.7594 0237966 252.7479 104.7570 14.83773934244037
MAKERSAT 0              
1 43016U 17073D   22146.64764144  .00004281  00000+0  32303-3 0  9991
2 43016  97.6790  42.3950 0244522 256.8442 100.5386 14.82171870243963
AEROCUBE 7B (OCSD B)    
1 43042U 17071F   22146.73723736  .00136220  00000+0  87934-3 0  9999
2 43042  51.6308 154.9798 0007034  45.7736 314.3840 15.75151600252268
AEROCUBE 7C (OCSD C)    
1 43043U 17071G   22146.74546076  .00122018  00000+0  85338-3 0  9997
2 43043  51.6293 156.5033 0006548  45.3710 314.7821 15.73350636252215
ASGARDIA 1              
1 43049U 17071N   22146.74590264  .00090991  00000+0  75014-3 0  9995
2 43049  51.6302 158.2053 0005572  34.3885 325.7471 15.69576480252192
PROPCUBE 2 (FAUNA)      
1 43052U 17071R   22146.20605961  .00162690  00000+0  10017-2 0  9998
2 43052  51.6259 152.2657 0006695  37.9842 322.1629 15.76147093252211
CORVUS BC3              
1 43118U 18004H   22146.48506214  .00009452  00000+0  35794-3 0  9995
2 43118  97.3632 219.4783 0010745  83.4629 276.7833 15.27075925242863
MICROMAS-2A             
1 43131U 18004W   22146.46114226  .00026414  00000+0  76837-3 0  9996
2 43131  97.3762 225.7010 0007100  76.7763 283.4272 15.35390838243203
SPACEBEE-4              
1 43139U 18004AE  22146.19477293  .00054509  00000+0  12451-2 0  9997
2 43139  97.3856 230.0446 0004643  77.5719 282.6048 15.42668589243409
SPACEBEE-3              
1 43140U 18004AF  22146.85421257  .00087945  00000+0  14889-2 0  9998
2 43140  97.3895 234.1278 0001588  83.8310 276.3123 15.51246105243718
SPACEBEE-2              
1 43141U 18004AG  22146.51528525  .00116742  00000+0  17143-2 0  9992
2 43141  97.3920 235.1281 0000330 110.6478 249.4812 15.55094482243732
SPACEBEE-1              
1 43142U 18004AH  22146.77322193  .00172900  00000+0  20239-2 0  9992
2 43142  97.3913 236.8947 0002301 260.0317 100.0680 15.60973300243853
CICERO 7                
1 43143U 18004AJ  22146.47012602  .00017455  00000+0  54859-3 0  9990
2 43143  97.3738 225.3382 0006835  85.0171 275.1851 15.33026131243208
GOMX-4B                 
1 43196U 18015E   22145.34874592  .00008403  00000+0  32020-3 0  9998
2 43196  97.5296 284.5245 0018411 135.8209 224.4503 15.26807362239639
GOMX-4A                 
1 43197U 18015F   22146.86288347  .00011866  00000+0  42797-3 0  9993
2 43197  97.5295 286.7922 0018075 130.6799 332.6179 15.28528234239921
AEROCUBE 12A            
1 43556U 18046C   22146.68314957  .00022897  00000+0  60017-3 0  9994
2 43556  51.6364 289.9340 0007301 314.2836  45.7549 15.38552218215960
AEROCUBE 12B            
1 43557U 18046D   22146.59417291  .00017175  00000+0  47926-3 0  9997
2 43557  51.6389 294.5239 0007269 312.6551  47.3819 15.36810090215844
SURFSAT                 
1 43614U 18070B   22146.88468012  .00043040  00000+0  66708-3 0  9996
2 43614  93.0304  89.5972 0015224 101.5957 258.7015 15.53742999207710
CP7 (DAVE)              
1 43615U 18070C   22146.55542722  .00038327  00000+0  61810-3 0  9993
2 43615  93.0299  89.3292 0015273 103.4287 256.8678 15.52657794207630
ELFIN-B                 
1 43616U 18070D   22146.90815177  .00081108  00000+0  84541-3 0  9991
2 43616  93.0207  90.5201 0014417  98.8802 261.4099 15.64152702207982
ELFIN-A                 
1 43617U 18070E   22146.87636361  .00090572  00000+0  87618-3 0  9997
2 43617  93.0277  91.8055 0013618  96.5750 263.7070 15.66022245208020
CUBEBEL-1 (BSUSAT-1)    
1 43666U 18083E   22146.85052260  .00014860  00000+0  63410-3 0  9993
2 43666  97.4211 175.7839 0014431  54.5595  66.6470 15.22911100198196
CICERO 10               
1 43690U 18088A   22146.77484899  .00009831  00000+0  39685-3 0  9992
2 43690  85.0351 330.7300 0012139 220.9992 139.0340 15.24569427196451
IRVINE01                
1 43693U 18088D   22146.78671379  .00037809  00000+0  10573-2 0  9997
2 43693  85.0278 325.5252 0012797 185.1915 174.9204 15.36426213196890
PROXIMA I               
1 43694U 18088E   22146.75723701  .00009436  00000+0  36266-3 0  9995
2 43694  85.0282 327.4867 0016931 187.5828 172.5163 15.26134713196665
PROXIMA II              
1 43696U 18088G   22146.49483118  .00009568  00000+0  36798-3 0  9999
2 43696  85.0283 327.6787 0016957 188.5091 171.5868 15.26111116196610
